[{"OBJECT_NAME":"STARLINK-3366","OBJECT_ID":"2022-005A","EPOCH":"2026-03-09T20:55:41.209536","MEAN_MOTION":15.08843448,"ECCENTRICITY":0.00010805,"INCLINATION":53.2165,"RA_OF_ASC_NODE":288.3062,"ARG_OF_PERICENTER":86.7312,"MEAN_ANOMALY":273.3804,"EPHEMERIS_TYPE":0,"CLASSIFICATION_TYPE":"U","NORAD_CAT_ID":51104,"ELEMENT_SET_NO":999,"REV_AT_EPOCH":22890,"BSTAR":7.2900776e-5,"MEAN_MOTION_DOT":8.73e-6,"MEAN_MOTION_DDOT":0},{"OBJECT_NAME":"LEMUR-2-LLOYD","OBJECT_ID":"2024-149DP","EPOCH":"2026-03-09T11:02:25.245024","MEAN_MOTION":15.07168338,"ECCENTRICITY":0.00051866,"INCLINATION":97.678,"RA_OF_ASC_NODE":149.6779,"ARG_OF_PERICENTER":125.6096,"MEAN_ANOMALY":234.5616,"EPHEMERIS_TYPE":0,"CLASSIFICATION_TYPE":"U","NORAD_CAT_ID":60577,"ELEMENT_SET_NO":999,"REV_AT_EPOCH":8536,"BSTAR":0.00080142638,"MEAN_MOTION_DOT":0.00012007,"MEAN_MOTION_DDOT":0}]
